IRIDIUM 126             
1 42809U 17039G   23323.59924952  .00000282  00000+0  93804-4 0  9990
2 42809  86.4005  26.7222 0001947 100.6650 259.4765 14.34219524335136
IRIDIUM 124             
1 42810U 17039H   23323.51020173  .00000201  00000+0  53668-4 0  9991
2 42810  86.4467 323.5272 0002483  89.9384 270.2101 14.43286247339430
IRIDIUM 128             
1 42811U 17039J   23323.31090922  .00000346  00000+0  11651-3 0  9994
2 42811  86.3987  58.3598 0002096  99.4256 260.7176 14.34217071335122
IRIDIUM 121             
1 42812U 17039K   23323.54851183  .00000283  00000+0  93934-4 0  9999
2 42812  86.4005  26.7650 0002008  94.5247 265.6178 14.34218871335004
IRIDIUM 133             
1 42955U 17061A   23323.76125036  .00000332  00000+0  11140-3 0  9990
2 42955  86.3987  58.2663 0001866  99.6601 260.4806 14.34217165319980
IRIDIUM 100             
1 42956U 17061B   23323.82466703  .00000325  00000+0  10896-3 0  9996
2 42956  86.3986  58.1805 0002098  97.8709 262.2725 14.34219657320018
IRIDIUM 122             
1 42957U 17061C   23323.51387826  .00000339  00000+0  11398-3 0  9994
2 42957  86.3986  58.3081 0002206 102.1504 257.9939 14.34220083319955
IRIDIUM 129             
1 42958U 17061D   23323.81832806  .00000330  00000+0  11060-3 0  9998
2 42958  86.3986  58.2382 0002072 102.3240 257.8188 14.34218806320013
